CCSDS_OMM_VERS = 2.0
CREATION_DATE  = 
ORIGINATOR     = 

OBJECT_NAME    = STARLINK-36530
OBJECT_ID      = 2026-012X
CENTER_NAME    = EARTH
REF_FRAME      = TEME
TIME_SYSTEM    = UTC
MEAN_ELEMENT_THEORY = SGP/SGP4

EPOCH          = 2026-01-19T00:25:32.539872
MEAN_MOTION    = 16.05267929
ECCENTRICITY   = .00077
INCLINATION    = 43.0100
RA_OF_ASC_NODE = 248.3700
ARG_OF_PERICENTER = 319.9700
MEAN_ANOMALY   = 13.3500

EPHEMERIS_TYPE = 0
CLASSIFICATION_TYPE = U
NORAD_CAT_ID   = 67514
ELEMENT_SET_NO = 999
REV_AT_EPOCH   = 1
BSTAR          = 0
MEAN_MOTION_DOT = -.2725E-4
MEAN_MOTION_DDOT = .8614162E-5

CCSDS_OMM_VERS = 2.0
CREATION_DATE  = 
ORIGINATOR     = 

OBJECT_NAME    = STARLINK-36543
OBJECT_ID      = 2026-012Y
CENTER_NAME    = EARTH
REF_FRAME      = TEME
TIME_SYSTEM    = UTC
MEAN_ELEMENT_THEORY = SGP/SGP4

EPOCH          = 2026-01-19T00:25:32.539872
MEAN_MOTION    = 16.05267929
ECCENTRICITY   = .00077
INCLINATION    = 43.0100
RA_OF_ASC_NODE = 248.3700
ARG_OF_PERICENTER = 319.9700
MEAN_ANOMALY   = 13.3500

EPHEMERIS_TYPE = 0
CLASSIFICATION_TYPE = U
NORAD_CAT_ID   = 67515
ELEMENT_SET_NO = 999
REV_AT_EPOCH   = 1
BSTAR          = 0
MEAN_MOTION_DOT = -.2725E-4
MEAN_MOTION_DDOT = .8614162E-5

CCSDS_OMM_VERS = 2.0
CREATION_DATE  = 
ORIGINATOR     = 

OBJECT_NAME    = STARLINK-36537
OBJECT_ID      = 2026-012Z
CENTER_NAME    = EARTH
REF_FRAME      = TEME
TIME_SYSTEM    = UTC
MEAN_ELEMENT_THEORY = SGP/SGP4

EPOCH          = 2026-01-19T00:25:32.539872
MEAN_MOTION    = 16.05267929
ECCENTRICITY   = .00077
INCLINATION    = 43.0100
RA_OF_ASC_NODE = 248.3700
ARG_OF_PERICENTER = 319.9700
MEAN_ANOMALY   = 13.3500

EPHEMERIS_TYPE = 0
CLASSIFICATION_TYPE = U
NORAD_CAT_ID   = 67516
ELEMENT_SET_NO = 999
REV_AT_EPOCH   = 1
BSTAR          = 0
MEAN_MOTION_DOT = -.2725E-4
MEAN_MOTION_DDOT = .8614162E-5

CCSDS_OMM_VERS = 2.0
CREATION_DATE  = 
ORIGINATOR     = 

OBJECT_NAME    = STARLINK-36544
OBJECT_ID      = 2026-012AA
CENTER_NAME    = EARTH
REF_FRAME      = TEME
TIME_SYSTEM    = UTC
MEAN_ELEMENT_THEORY = SGP/SGP4

EPOCH          = 2026-01-19T00:25:32.539872
MEAN_MOTION    = 16.05267929
ECCENTRICITY   = .00077
INCLINATION    = 43.0100
RA_OF_ASC_NODE = 248.3700
ARG_OF_PERICENTER = 319.9700
MEAN_ANOMALY   = 13.3500

EPHEMERIS_TYPE = 0
CLASSIFICATION_TYPE = U
NORAD_CAT_ID   = 67517
ELEMENT_SET_NO = 999
REV_AT_EPOCH   = 1
BSTAR          = 0
MEAN_MOTION_DOT = -.2725E-4
MEAN_MOTION_DDOT = .8614162E-5

CCSDS_OMM_VERS = 2.0
CREATION_DATE  = 
ORIGINATOR     = 

OBJECT_NAME    = STARLINK-36412
OBJECT_ID      = 2026-012AB
CENTER_NAME    = EARTH
REF_FRAME      = TEME
TIME_SYSTEM    = UTC
MEAN_ELEMENT_THEORY = SGP/SGP4

EPOCH          = 2026-01-19T00:25:32.539872
MEAN_MOTION    = 16.05267929
ECCENTRICITY   = .00077
INCLINATION    = 43.0100
RA_OF_ASC_NODE = 248.3700
ARG_OF_PERICENTER = 319.9700
MEAN_ANOMALY   = 13.3500

EPHEMERIS_TYPE = 0
CLASSIFICATION_TYPE = U
NORAD_CAT_ID   = 67518
ELEMENT_SET_NO = 999
REV_AT_EPOCH   = 1
BSTAR          = 0
MEAN_MOTION_DOT = -.2725E-4
MEAN_MOTION_DDOT = .8614162E-5

CCSDS_OMM_VERS = 2.0
CREATION_DATE  = 
ORIGINATOR     = 

OBJECT_NAME    = STARLINK-36415
OBJECT_ID      = 2026-012AC
CENTER_NAME    = EARTH
REF_FRAME      = TEME
TIME_SYSTEM    = UTC
MEAN_ELEMENT_THEORY = SGP/SGP4

EPOCH          = 2026-01-19T00:25:32.539872
MEAN_MOTION    = 16.05267929
ECCENTRICITY   = .00077
INCLINATION    = 43.0100
RA_OF_ASC_NODE = 248.3700
ARG_OF_PERICENTER = 319.9700
MEAN_ANOMALY   = 13.3500

EPHEMERIS_TYPE = 0
CLASSIFICATION_TYPE = U
NORAD_CAT_ID   = 67519
ELEMENT_SET_NO = 999
REV_AT_EPOCH   = 1
BSTAR          = 0
MEAN_MOTION_DOT = -.2725E-4
MEAN_MOTION_DDOT = .8614162E-5

CCSDS_OMM_VERS = 2.0
CREATION_DATE  = 
ORIGINATOR     = 

OBJECT_NAME    = STARLINK-36547
OBJECT_ID      = 2026-012AD
CENTER_NAME    = EARTH
REF_FRAME      = TEME
TIME_SYSTEM    = UTC
MEAN_ELEMENT_THEORY = SGP/SGP4

EPOCH          = 2026-01-19T00:25:32.539872
MEAN_MOTION    = 16.05267929
ECCENTRICITY   = .00077
INCLINATION    = 43.0100
RA_OF_ASC_NODE = 248.3700
ARG_OF_PERICENTER = 319.9700
MEAN_ANOMALY   = 13.3500

EPHEMERIS_TYPE = 0
CLASSIFICATION_TYPE = U
NORAD_CAT_ID   = 67520
ELEMENT_SET_NO = 999
REV_AT_EPOCH   = 1
BSTAR          = 0
MEAN_MOTION_DOT = -.2725E-4
MEAN_MOTION_DDOT = .8614162E-5

CCSDS_OMM_VERS = 2.0
CREATION_DATE  = 
ORIGINATOR     = 

OBJECT_NAME    = STARLINK-36444
OBJECT_ID      = 2026-012AE
CENTER_NAME    = EARTH
REF_FRAME      = TEME
TIME_SYSTEM    = UTC
MEAN_ELEMENT_THEORY = SGP/SGP4

EPOCH          = 2026-01-19T00:25:32.539872
MEAN_MOTION    = 16.05267929
ECCENTRICITY   = .00077
INCLINATION    = 43.0100
RA_OF_ASC_NODE = 248.3700
ARG_OF_PERICENTER = 319.9700
MEAN_ANOMALY   = 13.3500

EPHEMERIS_TYPE = 0
CLASSIFICATION_TYPE = U
NORAD_CAT_ID   = 67521
ELEMENT_SET_NO = 999
REV_AT_EPOCH   = 1
BSTAR          = 0
MEAN_MOTION_DOT = -.2725E-4
MEAN_MOTION_DDOT = .8614162E-5

CCSDS_OMM_VERS = 2.0
CREATION_DATE  = 
ORIGINATOR     = 

OBJECT_NAME    = HULIANWANG DIGUI-146
OBJECT_ID      = 2026-013A
CENTER_NAME    = EARTH
REF_FRAME      = TEME
TIME_SYSTEM    = UTC
MEAN_ELEMENT_THEORY = SGP/SGP4

EPOCH          = 2026-01-26T05:36:39.688416
MEAN_MOTION    = 13.97185996
ECCENTRICITY   = .00148583
INCLINATION    = 50.0262
RA_OF_ASC_NODE = 157.3067
ARG_OF_PERICENTER = 254.7079
MEAN_ANOMALY   = 105.2181

EPHEMERIS_TYPE = 0
CLASSIFICATION_TYPE = U
NORAD_CAT_ID   = 67522
ELEMENT_SET_NO = 999
REV_AT_EPOCH   = 97
BSTAR          = .18232533E-3
MEAN_MOTION_DOT = .108E-5
MEAN_MOTION_DDOT = 0

CCSDS_OMM_VERS = 2.0
CREATION_DATE  = 
ORIGINATOR     = 

OBJECT_NAME    = HULIANWANG DIGUI-147
OBJECT_ID      = 2026-013B
CENTER_NAME    = EARTH
REF_FRAME      = TEME
TIME_SYSTEM    = UTC
MEAN_ELEMENT_THEORY = SGP/SGP4

EPOCH          = 2026-01-25T14:08:57.194304
MEAN_MOTION    = 13.97622669
ECCENTRICITY   = .0011081
INCLINATION    = 50.0091
RA_OF_ASC_NODE = 159.9031
ARG_OF_PERICENTER = 256.0324
MEAN_ANOMALY   = 103.9346

EPHEMERIS_TYPE = 0
CLASSIFICATION_TYPE = U
NORAD_CAT_ID   = 67523
ELEMENT_SET_NO = 999
REV_AT_EPOCH   = 88
BSTAR          = .22481098E-4
MEAN_MOTION_DOT = -.117E-5
MEAN_MOTION_DDOT = 0

CCSDS_OMM_VERS = 2.0
CREATION_DATE  = 
ORIGINATOR     = 

OBJECT_NAME    = HULIANWANG DIGUI-148
OBJECT_ID      = 2026-013C
CENTER_NAME    = EARTH
REF_FRAME      = TEME
TIME_SYSTEM    = UTC
MEAN_ELEMENT_THEORY = SGP/SGP4

EPOCH          = 2026-01-21T10:36:54.841824
MEAN_MOTION    = 13.98087765
ECCENTRICITY   = .0010785
INCLINATION    = 50.0070
RA_OF_ASC_NODE = 176.6144
ARG_OF_PERICENTER = 240.3737
MEAN_ANOMALY   = 119.6091

EPHEMERIS_TYPE = 0
CLASSIFICATION_TYPE = U
NORAD_CAT_ID   = 67524
ELEMENT_SET_NO = 999
REV_AT_EPOCH   = 30
BSTAR          = .866E-5
MEAN_MOTION_DOT = -.137E-5
MEAN_MOTION_DDOT = 0

CCSDS_OMM_VERS = 2.0
CREATION_DATE  = 
ORIGINATOR     = 

OBJECT_NAME    = HULIANWANG DIGUI-149
OBJECT_ID      = 2026-013D
CENTER_NAME    = EARTH
REF_FRAME      = TEME
TIME_SYSTEM    = UTC
MEAN_ELEMENT_THEORY = SGP/SGP4

EPOCH          = 2026-01-21T03:45:07.528032
MEAN_MOTION    = 13.98123959
ECCENTRICITY   = .0010538
INCLINATION    = 50.0063
RA_OF_ASC_NODE = 177.7692
ARG_OF_PERICENTER = 247.0477
MEAN_ANOMALY   = 112.9313

EPHEMERIS_TYPE = 0
CLASSIFICATION_TYPE = U
NORAD_CAT_ID   = 67525
ELEMENT_SET_NO = 999
REV_AT_EPOCH   = 26
BSTAR          = .40401E-4
MEAN_MOTION_DOT = -.91E-6
MEAN_MOTION_DDOT = 0

